NORAD_CAT_ID,OBJECT_NAME,OBJECT_TYPE,EPOCH,MEAN_MOTION,ECCENTRICITY,INCLINATION,RA_OF_ASC_NODE,ARG_OF_PERICENTER,MEAN_ANOMALY,BSTAR,MEAN_MOTION_DOT,MEAN_MOTION_DDOT,TLE_LINE0,TLE_LINE1,TLE_LINE2,SEMIMAJOR_AXIS,PERIOD,APOGEE,PERIGEE,DECAYED
52680.0,STARLINK-3774,PAYLOAD,2024-01-02 13:31:48,15.08837642,0.0001272,53.2171,122.5673,95.7758,264.3379,3.7628e-05,3.11e-06,0.0,0 STARLINK-3774,1 52680U 22053AA  24002.56376104  .00000311  00000-0  37628-4 0  9998,2 52680  53.2171 122.5673 0001272  95.7758 264.3379 15.08837642 90817,6917.888,95.438,540.633,538.873,0.0
52680.0,STARLINK-3774,PAYLOAD,2024-01-02 15:07:11,15.08839431,0.0001286,53.2171,122.2697,97.6396,262.4743,4.764e-05,4.7e-06,0.0,0 STARLINK-3774,1 52680U 22053AA  24002.62999952  .00000470  00000-0  47640-4 0  9998,2 52680  53.2171 122.2697 0001286  97.6396 262.4743 15.08839431 90827,6917.882,95.438,540.637,538.857,0.0
52680.0,STARLINK-3774,PAYLOAD,2024-01-03 11:47:13,15.08832531,0.0001331,53.2176,118.4034,96.9876,263.1267,-6.6308e-05,-1.343e-05,0.0,0 STARLINK-3774,1 52680U 22053AA  24003.49113054 -.00001343  00000-0 -66308-4 0  9999,2 52680  53.2176 118.4034 0001331  96.9876 263.1267 15.08832531 90542,6917.903,95.438,540.689,538.847,0.0
52680.0,STARLINK-3774,PAYLOAD,2024-01-03 13:22:36,15.08833816,0.0001334,53.2173,118.1067,96.3647,263.7497,-6.2166e-05,-1.277e-05,0.0,0 STARLINK-3774,1 52680U 22053AA  24003.55736990 -.00001277  00000-0 -62166-4 0  9990,2 52680  53.2173 118.1067 0001334  96.3647 263.7497 15.08833816 90969,6917.899,95.438,540.687,538.841,0.0
52680.0,STARLINK-3774,PAYLOAD,2024-01-03 14:57:59,15.08836837,0.0001318,53.2174,117.8101,89.1464,270.968,-2.6631e-05,-7.12e-06,0.0,0 STARLINK-3774,1 52680U 22053AA  24003.62360739 -.00000712  00000-0 -26631-4 0  9992,2 52680  53.2174 117.8101 0001318  89.1464 270.9680 15.08836837 90975,6917.89,95.438,540.667,538.843,0.0
52680.0,STARLINK-3774,PAYLOAD,2024-01-04 11:38:00,15.08838286,0.0001304,53.2171,113.9461,88.8238,271.2904,6.4163e-05,7.33e-06,0.0,0 STARLINK-3774,1 52680U 22053AA  24004.48472461  .00000733  00000-0  64163-4 0  9996,2 52680  53.2171 113.9461 0001304  88.8238 271.2904 15.08838286 90690,6917.886,95.438,540.653,538.849,0.0
52680.0,STARLINK-3774,PAYLOAD,2024-01-04 13:13:23,15.08839747,0.0001343,53.2171,113.6487,85.9855,274.129,8.3417e-05,1.04e-05,0.0,0 STARLINK-3774,1 52680U 22053AA  24004.55096338  .00001040  00000-0  83417-4 0  9994,2 52680  53.2171 113.6487 0001343  85.9855 274.1290 15.08839747 91112,6917.881,95.438,540.675,538.817,0.0
52680.0,STARLINK-3774,PAYLOAD,2024-01-04 16:24:09,15.08848419,0.0001395,53.2175,113.0529,85.0479,275.0673,8.2357e-05,1.023e-05,0.0,0 STARLINK-3774,1 52680U 22053AA  24004.68343773  .00001023  00000-0  82357-4 0  9999,2 52680  53.2175 113.0529 0001395  85.0479 275.0673 15.08848419 90724,6917.855,95.437,540.685,538.755,0.0
52680.0,STARLINK-3774,PAYLOAD,2024-01-05 11:28:47,15.08836274,0.0001301,53.2169,109.4832,109.6205,250.4928,1.122e-05,-1.09e-06,0.0,0 STARLINK-3774,1 52680U 22053AA  24005.47832879 -.00000109  00000-0  11220-4 0  9993,2 52680  53.2169 109.4832 0001301 109.6205 250.4928 15.08836274 90849,6917.892,95.438,540.657,538.857,0.0
52680.0,STARLINK-3774,PAYLOAD,2024-01-05 13:04:10,15.0884051,0.0001318,53.2173,109.1854,105.2235,254.8903,3.4253e-05,2.57e-06,0.0,0 STARLINK-3774,1 52680U 22053AA  24005.54456573  .00000257  00000-0  34253-4 0  9998,2 52680  53.2173 109.1854 0001318 105.2235 254.8903 15.08840510 91264,6917.879,95.438,540.656,538.832,0.0
52680.0,STARLINK-3774,PAYLOAD,2024-01-06 11:19:34,15.08843998,0.0001338,53.2177,105.024,83.009,277.1054,-1.2084e-05,-4.8e-06,0.0,0 STARLINK-3774,1 52680U 22053AA  24006.47192687 -.00000480  00000-0 -12084-4 0  9992,2 52680  53.2177 105.0240 0001338  83.0090 277.1054 15.08843998 91400,6917.868,95.437,540.659,538.808,0.0
52680.0,STARLINK-3774,PAYLOAD,2024-01-06 12:54:57,15.08845971,0.0001406,53.2175,104.7271,78.7806,281.3344,1.4123e-05,-6.3e-07,0.0,0 STARLINK-3774,1 52680U 22053AA  24006.53816501 -.00000063  00000-0  14123-4 0  9999,2 52680  53.2175 104.7271 0001406  78.7806 281.3344 15.08845971 91008,6917.862,95.437,540.7,538.754,0.0
52680.0,STARLINK-3774,PAYLOAD,2024-01-07 12:45:43,15.08849444,0.0001405,53.2174,100.2665,79.154,280.961,9.6923e-05,1.255e-05,0.0,0 STARLINK-3774,1 52680U 22053AA  24007.53175708  .00001255  00000-0  96923-4 0  9998,2 52680  53.2174 100.2665 0001405  79.1540 280.9610 15.08849444 91565,6917.852,95.437,540.688,538.745,0.0
52680.0,STARLINK-3774,PAYLOAD,2024-01-08 11:01:08,15.08839707,0.0001354,53.2171,96.1022,104.3004,255.8139,-2.8565e-05,-7.42e-06,0.0,0 STARLINK-3774,1 52680U 22053AA  24008.45912554 -.00000742  00000-0 -28565-4 0  9997,2 52680  53.2171  96.1022 0001354 104.3004 255.8139 15.08839707 91299,6917.881,95.438,540.683,538.81,0.0
52680.0,STARLINK-3774,PAYLOAD,2024-01-09 10:51:55,15.08841116,0.0001294,53.2173,91.6423,98.7537,261.3602,-5.4065e-05,-1.148e-05,0.0,0 STARLINK-3774,1 52680U 22053AA  24009.45272705 -.00001148  00000-0 -54065-4 0  9990,2 52680  53.2173  91.6423 0001294  98.7537 261.3602 15.08841116 91852,6917.877,95.437,540.637,538.847,0.0
52680.0,STARLINK-3774,PAYLOAD,2024-01-10 04:21:10,15.08834321,0.0001207,53.2172,88.3722,92.6581,267.455,4.3255e-05,4.01e-06,0.0,0 STARLINK-3774,1 52680U 22053AA  24010.18137018  .00000401  00000-0  43255-4 0  9997,2 52680  53.2172  88.3722 0001207  92.6581 267.4550 15.08834321 91558,6917.898,95.438,540.598,538.928,0.0
52680.0,STARLINK-3774,PAYLOAD,2024-01-10 10:42:42,15.08839082,0.0001228,53.2175,87.1834,79.6121,280.501,7.9012e-05,9.7e-06,0.0,0 STARLINK-3774,1 52680U 22053AA  24010.44632728  .00000970  00000-0  79012-4 0  9995,2 52680  53.2175  87.1834 0001228  79.6121 280.5010 15.08839082 92007,6917.883,95.438,540.598,538.899,0.0
52680.0,STARLINK-3774,PAYLOAD,2024-01-10 15:28:51,15.08843686,0.0001299,53.2168,86.2899,105.6095,254.5041,0.00011585,1.557e-05,0.0,0 STARLINK-3774,1 52680U 22053AA  24010.64504221  .00001557  00000-0  11585-3 0  9995,2 52680  53.2168  86.2899 0001299 105.6095 254.5041 15.08843686 91625,6917.869,95.437,540.633,538.835,0.0
52680.0,STARLINK-3774,PAYLOAD,2024-01-11 04:11:57,15.08836519,0.0001815,53.2174,83.9097,122.6492,237.4675,1.7716e-05,-6e-08,0.0,0 STARLINK-3774,1 52680U 22053AA  24011.17497116 -.00000006  00000-0  17716-4 0  9990,2 52680  53.2174  83.9097 0001815 122.6492 237.4675 15.08836519 91709,6917.891,95.438,541.012,538.5,0.0
52680.0,STARLINK-3774,PAYLOAD,2024-01-11 12:08:53,15.08837732,0.000146,53.2171,82.4275,75.2811,284.8343,0.00012079,1.635e-05,0.0,0 STARLINK-3774,1 52680U 22053AA  24011.50617087  .00001635  00000-0  12079-3 0  9992,2 52680  53.2171  82.4275 0001460  75.2811 284.8343 15.08837732 92169,6917.887,95.438,540.762,538.742,0.0
52680.0,STARLINK-3774,PAYLOAD,2024-01-12 11:59:40,15.0883736,0.0001498,53.2173,77.966,67.8595,292.2556,6.4737e-07,-2.78e-06,0.0,0 STARLINK-3774,1 52680U 22053AA  24012.49977678 -.00000278  00000-0  64737-6 0  9990,2 52680  53.2173  77.9660 0001498  67.8595 292.2556 15.08837360 91902,6917.888,95.438,540.79,538.717,0.0
52680.0,STARLINK-3774,PAYLOAD,2024-01-13 10:15:04,15.08841724,0.0001767,53.2171,73.8031,79.5661,280.553,7.7884e-05,9.52e-06,0.0,0 STARLINK-3774,1 52680U 22053AA  24013.42713293  .00000952  00000-0  77884-4 0  9998,2 52680  53.2171  73.8031 0001767  79.5661 280.5530 15.08841724 92452,6917.875,95.437,540.963,538.518,0.0
52680.0,STARLINK-3774,PAYLOAD,2024-01-14 10:05:51,15.08837614,0.0001662,53.2183,69.3444,84.2634,275.8548,8.7565e-05,1.106e-05,0.0,0 STARLINK-3774,1 52680U 22053AA  24014.42073448  .00001106  00000-0  87565-4 0  9999,2 52680  53.2183  69.3444 0001662  84.2634 275.8548 15.08837614 92606,6917.888,95.438,540.902,538.603,0.0
52680.0,STARLINK-3774,PAYLOAD,2024-01-15 09:56:38,15.08845204,0.0001977,53.2188,64.8818,114.9757,245.1441,3.7226e-05,3.04e-06,0.0,0 STARLINK-3774,1 52680U 22053AA  24015.41432904  .00000304  00000-0  37226-4 0  9993,2 52680  53.2188  64.8818 0001977 114.9757 245.1441 15.08845204 92349,6917.864,95.437,541.097,538.362,0.0
52680.0,STARLINK-3774,PAYLOAD,2024-01-16 03:25:53,15.08829991,0.0001706,53.2175,61.61,98.3675,261.7511,2.7603e-06,-2.44e-06,0.0,0 STARLINK-3774,1 52680U 22053AA  24016.14298194 -.00000244  00000-0  27603-5 0  9998,2 52680  53.2175  61.6100 0001706  98.3675 261.7511 15.08829991 92457,6917.911,95.438,540.956,538.596,0.0
52680.0,STARLINK-3774,PAYLOAD,2024-01-16 09:47:26,15.08830299,0.0001782,53.2179,60.4205,103.6387,256.4804,9.7123e-06,-1.34e-06,0.0,0 STARLINK-3774,1 52680U 22053AA  24016.40794406 -.00000134  00000-0  97123-5 0  9996,2 52680  53.2179  60.4205 0001782 103.6387 256.4804 15.08830299 92907,6917.91,95.438,541.008,538.542,0.0
52680.0,STARLINK-3774,PAYLOAD,2024-01-17 09:38:13,15.08841578,0.0001649,53.2189,55.9612,104.3253,255.7922,6.8321e-05,8e-06,0.0,0 STARLINK-3774,1 52680U 22053AA  24017.40154674  .00000800  00000-0  68321-4 0  9990,2 52680  53.2189  55.9612 0001649 104.3253 255.7922 15.08841578 92647,6917.876,95.437,540.881,538.6,0.0
52680.0,STARLINK-3774,PAYLOAD,2024-01-18 11:04:22,15.08859706,0.0001712,53.219,51.2023,89.1001,271.0187,0.00033711,5.084e-05,0.0,0 STARLINK-3774,1 52680U 22053AA  24018.46136652  .00005084  00000-0  33711-3 0  9996,2 52680  53.2190  51.2023 0001712  89.1001 271.0187 15.08859706 92800,6917.82,95.436,540.869,538.501,0.0
52680.0,STARLINK-3774,PAYLOAD,2024-01-19 10:55:10,15.08851622,0.0001602,53.2191,46.7365,79.7845,280.3328,6.9182e-06,-1.78e-06,0.0,0 STARLINK-3774,1 52680U 22053AA  24019.45498483 -.00000178  00000-0  69182-5 0  9992,2 52680  53.2191  46.7365 0001602  79.7845 280.3328 15.08851622 92953,6917.845,95.437,540.818,538.602,0.0
52680.0,STARLINK-3774,PAYLOAD,2024-01-20 09:10:32,15.08877529,0.0001533,53.2191,42.5804,82.58,277.5367,4.1079e-05,3.66e-06,0.0,0 STARLINK-3774,1 52680U 22053AA  24020.38231989  .00000366  00000-0  41079-4 0  9994,2 52680  53.2191  42.5804 0001533  82.5800 277.5367 15.08877529 93092,6917.766,95.435,540.691,538.57,0.0
